{"type": "FeatureCollection", "features": [ {"type": "Feature", "properties": {"norad_id": 37834, "name": "INTELSAT 18 (IS-18)", "group": "intelsat", "lat": -0.009004626427450618, "lon": -51.60958421226099, "alt_km": 35778.05484769753, "timestamp": "2025-12-27T02:10:15.855749+00:00", "meta": {"OBJECT_NAME": "INTELSAT 18 (IS-18)", "OBJECT_ID": "2011-056A", "EPOCH": "2025-12-26T17:18:43.560864", "MEAN_MOTION": 1.00271937, "ECCENTRICITY": 0.0001974, "INCLINATION": 0.0148, "RA_OF_ASC_NODE": 302.6576, "ARG_OF_PERICENTER": 348.2305, "MEAN_ANOMALY": 244.2541, "EPHEMERIS_TYPE": 0, "CLASSIFICATION_TYPE": "U", "NORAD_CAT_ID": 37834, "ELEMENT_SET_NO": 999, "REV_AT_EPOCH": 5208, "BSTAR": 0, "MEAN_MOTION_DOT": 7.5e-07, "MEAN_MOTION_DDOT": 0}, "tle": {"line1": "1 37834U 11056A   25360.72133751  .00000075  00000+0  00000+0 0  9993", "line2": "2 37834   0.0148 302.6576 0001974 348.2305 244.2541  1.00271937 52082"}}, "geometry": {"type": "Point", "coordinates": [-51.60958421226099, -0.009004626427450618]}}, {"type": "Feature", "properties": {"norad_id": 38098, "name": "INTELSAT 22 (IS-22)", "group": "intelsat", "lat": 0.01663765904018587, "lon": -159.55310729723712, "alt_km": 35787.74629074979, "timestamp": "2025-12-27T02:10:15.855761+00:00", "meta": {"OBJECT_NAME": "INTELSAT 22 (IS-22)", "OBJECT_ID": "2012-011A", "EPOCH": "2025-12-26T19:50:31.200000", "MEAN_MOTION": 1.00270663, "ECCENTRICITY": 0.0001956, "INCLINATION": 0.0335, "RA_OF_ASC_NODE": 53.4838, "ARG_OF_PERICENTER": 246.5621, "MEAN_ANOMALY": 165.2355, "EPHEMERIS_TYPE": 0, "CLASSIFICATION_TYPE": "U", "NORAD_CAT_ID": 38098, "ELEMENT_SET_NO": 999, "REV_AT_EPOCH": 546, "BSTAR": 0, "MEAN_MOTION_DOT": 0, "MEAN_MOTION_DDOT": 0}, "tle": {"line1": "1 38098U 12011A   25360.82675000  .00000000  00000+0  00000+0 0  9995", "line2": "2 38098   0.0335  53.4838 0001956 246.5621 165.2355  1.00270663  5466"}}, "geometry": {"type": "Point", "coordinates": [-159.55310729723712, 0.01663765904018587]}}, {"type": "Feature", "properties": {"norad_id": 38356, "name": "INTELSAT 19 (IS-19)", "group": "intelsat", "lat": -0.022880378162077403, "lon": -65.59226268176224, "alt_km": 35774.143019428986, "timestamp": "2025-12-27T02:10:15.855773+00:00", "meta": {"OBJECT_NAME": "INTELSAT 19 (IS-19)", "OBJECT_ID": "2012-030A", "EPOCH": "2025-12-26T13:49:38.874432", "MEAN_MOTION": 1.00271971, "ECCENTRICITY": 0.000302, "INCLINATION": 0.0093, "RA_OF_ASC_NODE": 344.9581, "ARG_OF_PERICENTER": 287.7802, "MEAN_ANOMALY": 196.0025, "EPHEMERIS_TYPE": 0, "CLASSIFICATION_TYPE": "U", "NORAD_CAT_ID": 38356, "ELEMENT_SET_NO": 999, "REV_AT_EPOCH": 4872, "BSTAR": 0, "MEAN_MOTION_DOT": -3.4e-07, "MEAN_MOTION_DDOT": 0}, "tle": {"line1": "1 38356U 12030A   25360.57614438 -.00000034  00000+0  00000+0 0  9991", "line2": "2 38356   0.0093 344.9581 0003020 287.7802 196.0025  1.00271971 48724"}}, "geometry": {"type": "Point", "coordinates": [-65.59226268176224, -0.022880378162077403]}}, {"type": "Feature", "properties": {"norad_id": 38740, "name": "INTELSAT 20 (IS-20)", "group": "intelsat", "lat": 0.01021936517414871, "lon": -163.083522328296, "alt_km": 35776.2296898955, "timestamp": "2025-12-27T02:10:15.855785+00:00", "meta": {"OBJECT_NAME": "INTELSAT 20 (IS-20)", "OBJECT_ID": "2012-043A", "EPOCH": "2025-12-26T02:10:38.891424", "MEAN_MOTION": 1.00277669, "ECCENTRICITY": 0.00019573, "INCLINATION": 0.0128, "RA_OF_ASC_NODE": 61.9497, "ARG_OF_PERICENTER": 128.5096, "MEAN_ANOMALY": 5.5509, "EPHEMERIS_TYPE": 0, "CLASSIFICATION_TYPE": "U", "NORAD_CAT_ID": 38740, "ELEMENT_SET_NO": 999, "REV_AT_EPOCH": 4901, "BSTAR": 0, "MEAN_MOTION_DOT": -4e-08, "MEAN_MOTION_DDOT": 0}, "tle": {"line1": "1 38740U 12043A   25360.09072791 -.00000004  00000+0  00000+0 0  9996", "line2": "2 38740   0.0128  61.9497 0001957 128.5096   5.5509  1.00277669 49010"}}, "geometry": {"type": "Point", "coordinates": [-163.083522328296, 0.01021936517414871]}}, {"type": "Feature", "properties": {"norad_id": 38749, "name": "INTELSAT 21 (IS-21)", "group": "intelsat", "lat": 0.032955847276897834, "lon": 70.407145771108, "alt_km": 35793.22208065585, "timestamp": "2025-12-27T02:10:15.855796+00:00", "meta": {"OBJECT_NAME": "INTELSAT 21 (IS-21)", "OBJECT_ID": "2012-045A", "EPOCH": "2025-12-26T05:54:07.054272", "MEAN_MOTION": 1.00271929, "ECCENTRICITY": 0.0001751, "INCLINATION": 0.0183, "RA_OF_ASC_NODE": 334.425, "ARG_OF_PERICENTER": 292.8678, "MEAN_ANOMALY": 218.2466, "EPHEMERIS_TYPE": 0, "CLASSIFICATION_TYPE": "U", "NORAD_CAT_ID": 38749, "ELEMENT_SET_NO": 999, "REV_AT_EPOCH": 4879, "BSTAR": 0, "MEAN_MOTION_DOT": -2.63e-06, "MEAN_MOTION_DDOT": 0}, "tle": {"line1": "1 38749U 12045A   25360.24591498 -.00000263  00000+0  00000+0 0  9991", "line2": "2 38749   0.0183 334.4250 0001751 292.8678 218.2466  1.00271929 48790"}}, "geometry": {"type": "Point", "coordinates": [70.407145771108, 0.032955847276897834]}}, {"type": "Feature", "properties": {"norad_id": 38867, "name": "INTELSAT 23 (IS-23)", "group": "intelsat", "lat": 0.011395080878414095, "lon": 75.4041162100465, "alt_km": 35787.47310972262, "timestamp": "2025-12-27T02:10:15.855808+00:00", "meta": {"OBJECT_NAME": "INTELSAT 23 (IS-23)", "OBJECT_ID": "2012-057A", "EPOCH": "2025-12-26T11:04:04.439136", "MEAN_MOTION": 1.00273117, "ECCENTRICITY": 6.46e-05, "INCLINATION": 0.0181, "RA_OF_ASC_NODE": 78.0807, "ARG_OF_PERICENTER": 229.1315, "MEAN_ANOMALY": 261.0227, "EPHEMERIS_TYPE": 0, "CLASSIFICATION_TYPE": "U", "NORAD_CAT_ID": 38867, "ELEMENT_SET_NO": 999, "REV_AT_EPOCH": 4822, "BSTAR": 0, "MEAN_MOTION_DOT": -2.63e-06, "MEAN_MOTION_DDOT": 0}, "tle": {"line1": "1 38867U 12057A   25360.46116249 -.00000263  00000+0  00000+0 0  9996", "line2": "2 38867   0.0181  78.0807 0000646 229.1315 261.0227  1.00273117 48221"}}, "geometry": {"type": "Point", "coordinates": [75.4041162100465, 0.011395080878414095]}}, {"type": "Feature", "properties": {"norad_id": 39360, "name": "FM-6", "group": "intelsat", "lat": -0.018131190189584638, "lon": 12.18370530271161, "alt_km": 35800.06896184742, "timestamp": "2025-12-27T02:10:15.855819+00:00", "meta": {"OBJECT_NAME": "FM-6", "OBJECT_ID": "2013-058A", "EPOCH": "2025-12-25T23:15:38.712384", "MEAN_MOTION": 1.00267622, "ECCENTRICITY": 0.00031338, "INCLINATION": 0.0194, "RA_OF_ASC_NODE": 74.6696, "ARG_OF_PERICENTER": 105.3027, "MEAN_ANOMALY": 147.4825, "EPHEMERIS_TYPE": 0, "CLASSIFICATION_TYPE": "U", "NORAD_CAT_ID": 39360, "ELEMENT_SET_NO": 999, "REV_AT_EPOCH": 4433, "BSTAR": 0, "MEAN_MOTION_DOT": 5e-08, "MEAN_MOTION_DDOT": 0}, "tle": {"line1": "1 39360U 13058A   25359.96919806  .00000005  00000+0  00000+0 0  9993", "line2": "2 39360   0.0194  74.6696 0003133 105.3027 147.4825  1.00267622 44334"}}, "geometry": {"type": "Point", "coordinates": [12.18370530271161, -0.018131190189584638]}}, {"type": "Feature", "properties": {"norad_id": 40271, "name": "INTELSAT 30 (IS-30)", "group": "intelsat", "lat": 0.0019828292703336537, "lon": 33.31441988110868, "alt_km": 35782.54048189226, "timestamp": "2025-12-27T02:10:15.855831+00:00", "meta": {"OBJECT_NAME": "INTELSAT 30 (IS-30)", "OBJECT_ID": "2014-062A", "EPOCH": "2025-12-26T05:38:38.555808", "MEAN_MOTION": 1.00271488, "ECCENTRICITY": 0.0001425, "INCLINATION": 0.0176, "RA_OF_ASC_NODE": 41.6763, "ARG_OF_PERICENTER": 44.2324, "MEAN_ANOMALY": 358.6785, "EPHEMERIS_TYPE": 0, "CLASSIFICATION_TYPE": "U", "NORAD_CAT_ID": 40271, "ELEMENT_SET_NO": 999, "REV_AT_EPOCH": 506, "BSTAR": 0, "MEAN_MOTION_DOT": -1.29e-06, "MEAN_MOTION_DDOT": 0}, "tle": {"line1": "1 40271U 14062A   25360.23516847 -.00000129  00000+0  00000+0 0  9990", "line2": "2 40271   0.0176  41.6763 0001425  44.2324 358.6785  1.00271488  5062"}}, "geometry": {"type": "Point", "coordinates": [33.31441988110868, 0.0019828292703336537]}}, {"type": "Feature", "properties": {"norad_id": 40333, "name": "DIRECTV 14", "group": "intelsat", "lat": 0.02078502599031786, "lon": 29.25087526857935, "alt_km": 35785.34760694893, "timestamp": "2025-12-27T02:10:15.855843+00:00", "meta": {"OBJECT_NAME": "DIRECTV 14", "OBJECT_ID": "2014-078B", "EPOCH": "2025-12-24T12:37:43.773312", "MEAN_MOTION": 1.00279829, "ECCENTRICITY": 3.885e-05, "INCLINATION": 0.0184, "RA_OF_ASC_NODE": 340.4706, "ARG_OF_PERICENTER": 254.7884, "MEAN_ANOMALY": 308.2619, "EPHEMERIS_TYPE": 0, "CLASSIFICATION_TYPE": "U", "NORAD_CAT_ID": 40333, "ELEMENT_SET_NO": 999, "REV_AT_EPOCH": 4029, "BSTAR": 0, "MEAN_MOTION_DOT": -1.06e-06, "MEAN_MOTION_DDOT": 0}, "tle": {"line1": "1 40333U 14078B   25358.52620108 -.00000106  00000+0  00000+0 0  9996", "line2": "2 40333   0.0184 340.4706 0000388 254.7884 308.2619  1.00279829 40291"}}, "geometry": {"type": "Point", "coordinates": [29.25087526857935, 0.02078502599031786]}}, {"type": "Feature", "properties": {"norad_id": 40663, "name": "DIRECTV 15", "group": "intelsat", "lat": 0.0021668850923287014, "lon": 25.47701419504161, "alt_km": 35786.62009417388, "timestamp": "2025-12-27T02:10:15.855855+00:00", "meta": {"OBJECT_NAME": "DIRECTV 15", "OBJECT_ID": "2015-026A", "EPOCH": "2025-12-26T07:34:38.576064", "MEAN_MOTION": 1.00269733, "ECCENTRICITY": 3.61e-05, "INCLINATION": 0.018, "RA_OF_ASC_NODE": 29.1854, "ARG_OF_PERICENTER": 84.7041, "MEAN_ANOMALY": 351.9356, "EPHEMERIS_TYPE": 0, "CLASSIFICATION_TYPE": "U", "NORAD_CAT_ID": 40663, "ELEMENT_SET_NO": 999, "REV_AT_EPOCH": 3873, "BSTAR": 0, "MEAN_MOTION_DOT": -8e-07, "MEAN_MOTION_DDOT": 0}, "tle": {"line1": "1 40663U 15026A   25360.31572426 -.00000080  00000+0  00000+0 0  9996", "line2": "2 40663   0.0180  29.1854 0000361  84.7041 351.9356  1.00269733 38737"}}, "geometry": {"type": "Point", "coordinates": [25.47701419504161, 0.0021668850923287014]}}]}